0 DIAMANT R/B
1 02017U 66013B   13282.25457412  .00003314  00000-0  92360-3 0  9356
2 02017 034.0648 199.0650 1098345 004.5602 356.4151 12.78868716173341
0 DIAMANT R/B
1 02017U 66013B   13284.12915516  .00003328  00000-0  92873-3 0  9363
2 02017 034.0645 190.9401 1098289 016.4784 346.8789 12.78879480173588
0 DIAMANT R/B
1 02017U 66013B   13286.78473726  .00003042  00000-0  85047-3 0  9389
2 02017 034.0647 179.4310 1098307 033.3612 333.1599 12.78894694173920
0 DIAMANT R/B
1 02017U 66013B   13288.11248235  .00004670  00000-0  13020-2 0  9393
2 02017 034.0645 173.6768 1098302 041.8031 326.1444 12.78903331174094
0 DIAMANT R/B
1 02017U 66013B   13289.12778950  .00003946  00000-0  11012-2 0  9403
2 02017 034.0642 169.2766 1098306 048.2581 320.6865 12.78912333174228
0 DIAMANT R/B
1 02017U 66013B   13291.08022607  .00003778  00000-0  10546-2 0  9417
2 02017 034.0638 160.8146 1098315 060.6715 309.9146 12.78925872174470
0 DIAMANT R/B
1 02017U 66013B   13292.09544909  .00003344  00000-0  93400-3 0  9424
2 02017 034.0636 156.4144 1098337 067.1252 304.1490 12.78933202174609
0 DIAMANT R/B
1 02017U 66013B   13293.81344007  .00004077  00000-0  11366-2 0  9437
2 02017 034.0629 148.9679 1098301 078.0496 294.0933 12.78943840174824
0 DIAMANT R/B
1 02017U 66013B   13294.98473790  .00004248  00000-0  11836-2 0  9441
2 02017 034.0630 143.8911 1098268 085.4961 287.0063 12.78952923174974
0 DIAMANT R/B
1 02017U 66013B   13295.99982102  .00004579  00000-0  12752-2 0  9451
2 02017 034.0631 139.4914 1098223 091.9501 280.7002 12.78960685175105
